NORAD_CAT_ID,OBJECT_NAME,OBJECT_TYPE,EPOCH,MEAN_MOTION,ECCENTRICITY,INCLINATION,RA_OF_ASC_NODE,ARG_OF_PERICENTER,MEAN_ANOMALY,BSTAR,MEAN_MOTION_DOT,MEAN_MOTION_DDOT,TLE_LINE0,TLE_LINE1,TLE_LINE2,SEMIMAJOR_AXIS,PERIOD,APOGEE,PERIGEE,DECAYED
56784.0,STARLINK-6354,PAYLOAD,2023-09-25 20:40:47,15.69912154,0.0002678,69.9979,82.7031,250.5139,109.5768,-9.2297e-06,-1.321e-05,0.0,0 STARLINK-6354,1 56784U 23078T   23268.86166330 -.00001321  00000-0 -92297-5 0  9997,2 56784  69.9979  82.7031 0002678 250.5139 109.5768 15.69912154 18503,6737.285,91.725,360.955,357.346,0.0
56784.0,STARLINK-6354,PAYLOAD,2023-09-26 15:01:49,15.6991432,0.0003368,69.9975,80.5518,261.4046,98.6768,-1.6429e-05,-2.187e-05,0.0,0 STARLINK-6354,1 56784U 23078T   23269.62626827 -.00002187  00000-0 -16429-4 0  9997,2 56784  69.9975  80.5518 0003368 261.4046  98.6768 15.69914320 18628,6737.279,91.725,361.413,356.875,0.0
56784.0,STARLINK-6354,PAYLOAD,2023-09-26 21:08:50,15.69912039,0.0003187,69.9978,79.8372,261.5359,98.5475,-1.3495e-05,-1.834e-05,0.0,0 STARLINK-6354,1 56784U 23078T   23269.88113862 -.00001834  00000-0 -13495-4 0  9993,2 56784  69.9978  79.8372 0003187 261.5359  98.5475 15.69912039 18660,6737.286,91.725,361.298,357.003,0.0
56784.0,STARLINK-6354,PAYLOAD,2023-09-27 04:47:33,15.69935238,0.0003589,69.9975,78.9401,263.6318,96.4469,4.1695e-05,4.806e-05,0.0,0 STARLINK-6354,1 56784U 23078T   23270.19969618  .00004806  00000-0  41695-4 0  9990,2 56784  69.9975  78.9401 0003589 263.6318  96.4469 15.69935238 18974,6737.219,91.724,361.502,356.666,0.0
56784.0,STARLINK-6354,PAYLOAD,2023-09-27 12:26:20,15.69912284,0.0002711,69.9979,78.0442,263.1865,96.9022,2.3885e-05,2.659e-05,0.0,0 STARLINK-6354,1 56784U 23078T   23270.51829540  .00002659  00000-0  23885-4 0  9990,2 56784  69.9979  78.0442 0002711 263.1865  96.9022 15.69912284 18765,6737.285,91.725,360.976,357.323,0.0
56784.0,STARLINK-6354,PAYLOAD,2023-09-27 13:58:05,15.6991563,0.0003212,69.9978,77.8645,274.4647,85.6182,2.9554e-05,3.341e-05,0.0,0 STARLINK-6354,1 56784U 23078T   23270.58200986  .00003341  00000-0  29554-4 0  9992,2 56784  69.9978  77.8645 0003212 274.4647  85.6182 15.69915630 19037,6737.275,91.725,361.304,356.976,0.0
56784.0,STARLINK-6354,PAYLOAD,2023-09-28 14:26:07,15.69914952,0.0002932,69.9978,74.9969,260.474,99.6124,2.6847e-05,3.015e-05,0.0,0 STARLINK-6354,1 56784U 23078T   23271.60148018  .00003015  00000-0  26847-4 0  9993,2 56784  69.9978  74.9969 0002932 260.4740  99.6124 15.69914952 18936,6737.277,91.725,361.118,357.167,0.0
56784.0,STARLINK-6354,PAYLOAD,2023-09-28 20:33:08,15.69914735,0.0003495,69.9979,74.2828,263.6018,96.4779,1.6814e-05,1.809e-05,0.0,0 STARLINK-6354,1 56784U 23078T   23271.85635014  .00001809  00000-0  16814-4 0  9999,2 56784  69.9979  74.2828 0003495 263.6018  96.4779 15.69914735 18976,6737.278,91.725,361.498,356.788,0.0
56784.0,STARLINK-6354,PAYLOAD,2023-09-29 10:18:53,15.69931668,0.0003776,69.998,72.6681,262.9298,97.1469,5.0952e-06,4e-06,0.0,0 STARLINK-6354,1 56784U 23078T   23272.42978952  .00000400  00000-0  50952-5 0  9992,2 56784  69.9980  72.6681 0003776 262.9298  97.1469 15.69931668 19329,6737.229,91.724,361.638,356.551,0.0
56784.0,STARLINK-6354,PAYLOAD,2023-09-29 13:22:23,15.69942154,0.0003312,69.9977,72.3122,268.4024,91.6792,-5.0861e-06,-8.25e-06,0.0,0 STARLINK-6354,1 56784U 23078T   23272.55721917 -.00000825  00000-0 -50861-5 0  9995,2 56784  69.9977  72.3122 0003312 268.4024  91.6792 15.69942154 19089,6737.199,91.723,361.296,356.833,0.0
56784.0,STARLINK-6354,PAYLOAD,2023-09-29 19:29:23,15.69939279,0.0003646,69.9979,71.5952,275.0903,84.9876,2.0171e-05,2.215e-05,0.0,0 STARLINK-6354,1 56784U 23078T   23272.81208111  .00002215  00000-0  20171-4 0  9993,2 56784  69.9979  71.5952 0003646 275.0903  84.9876 15.69939279 19388,6737.208,91.723,361.529,356.616,0.0
56784.0,STARLINK-6354,PAYLOAD,2023-09-30 18:25:42,15.69919899,0.0003144,69.9989,68.908,271.8878,88.1958,1.2479e-05,1.288e-05,0.0,0 STARLINK-6354,1 56784U 23078T   23273.76784742  .00001288  00000-0  12479-4 0  9998,2 56784  69.9989  68.9080 0003144 271.8878  88.1958 15.69919899 19539,6737.263,91.724,361.246,357.01,0.0
56784.0,STARLINK-6354,PAYLOAD,2023-10-01 11:14:57,15.69932105,0.0002919,69.9969,66.9366,269.201,90.8851,6.4902e-06,5.68e-06,0.0,0 STARLINK-6354,1 56784U 23078T   23274.46872310  .00000568  00000-0  64902-5 0  9994,2 56784  69.9969  66.9366 0002919 269.2010  90.8851 15.69932105 19649,6737.228,91.724,361.06,357.127,0.0
56784.0,STARLINK-6354,PAYLOAD,2023-10-01 12:46:43,15.69922441,0.0003672,69.9962,66.757,269.3648,90.7127,-7.5787e-06,-1.124e-05,0.0,0 STARLINK-6354,1 56784U 23078T   23274.53244675 -.00001124  00000-0 -75787-5 0  9993,2 56784  69.9962  66.7570 0003672 269.3648  90.7127 15.69922441 19391,6737.256,91.724,361.595,356.647,0.0
56784.0,STARLINK-6354,PAYLOAD,2023-10-01 18:53:44,15.69921232,0.0003402,69.9979,66.0427,273.6903,86.3903,-1.7933e-05,-2.368e-05,0.0,0 STARLINK-6354,1 56784U 23078T   23274.78731800 -.00002368  00000-0 -17933-4 0  9990,2 56784  69.9979  66.0427 0003402 273.6903  86.3903 15.69921232 19699,6737.259,91.724,361.416,356.832,0.0
56784.0,STARLINK-6354,PAYLOAD,2023-10-01 20:25:29,15.6992367,0.0003464,69.9981,65.8616,263.7849,96.2952,-1.1467e-05,-1.591e-05,0.0,0 STARLINK-6354,1 56784U 23078T   23274.85103050 -.00001591  00000-0 -11467-4 0  9991,2 56784  69.9981  65.8616 0003464 263.7849  96.2952 15.69923670 19441,6737.252,91.724,361.451,356.784,0.0
56784.0,STARLINK-6354,PAYLOAD,2023-10-02 19:21:45,15.69924649,0.0003572,69.9984,63.1737,272.8518,87.2269,1.028e-05,1.023e-05,0.0,0 STARLINK-6354,1 56784U 23078T   23275.80677951  .00001023  00000-0  10280-4 0  9993,2 56784  69.9984  63.1737 0003572 272.8518  87.2269 15.69924649 19597,6737.25,91.724,361.521,356.708,0.0
56784.0,STARLINK-6354,PAYLOAD,2023-10-03 03:00:31,15.6993119,0.0003597,69.998,62.278,271.5989,88.4795,3.2764e-06,1.81e-06,0.0,0 STARLINK-6354,1 56784U 23078T   23276.12535957  .00000181  00000-0  32764-5 0  9994,2 56784  69.9980  62.2780 0003597 271.5989  88.4795 15.69931190 19907,6737.231,91.724,361.519,356.672,0.0
56784.0,STARLINK-6354,PAYLOAD,2023-10-03 12:11:02,15.69919521,0.0003339,69.9972,61.204,270.9363,89.145,2.5325e-06,9.2e-07,0.0,0 STARLINK-6354,1 56784U 23078T   23276.50766745  .00000092  00000-0  25325-5 0  9993,2 56784  69.9972  61.2040 0003339 270.9363  89.1450 15.69919521 19965,6737.264,91.724,361.379,356.88,0.0
56784.0,STARLINK-6354,PAYLOAD,2023-10-03 19:49:48,15.69913882,0.0003211,69.999,60.3089,272.0069,88.0759,2.4078e-05,2.682e-05,0.0,0 STARLINK-6354,1 56784U 23078T   23276.82625198  .00002682  00000-0  24078-4 0  9994,2 56784  69.9990  60.3089 0003211 272.0069  88.0759 15.69913882 19754,6737.28,91.725,361.309,356.982,0.0
56784.0,STARLINK-6354,PAYLOAD,2023-10-04 11:07:18,15.69930599,0.0003479,69.9975,58.5158,275.455,84.6249,1.7042e-05,1.837e-05,0.0,0 STARLINK-6354,1 56784U 23078T   23277.46340717  .00001837  00000-0  17042-4 0  9990,2 56784  69.9975  58.5158 0003479 275.4550  84.6249 15.69930599 20113,6737.233,91.724,361.441,356.754,0.0
56784.0,STARLINK-6354,PAYLOAD,2023-10-04 12:39:05,15.69906952,0.0003065,69.9972,58.3373,265.6421,94.4425,-8.652e-06,-1.252e-05,0.0,0 STARLINK-6354,1 56784U 23078T   23277.52714284 -.00001252  00000-0 -86520-5 0  9992,2 56784  69.9972  58.3373 0003065 265.6421  94.4425 15.69906952 19867,6737.3,91.725,361.23,357.1,0.0
56784.0,STARLINK-6354,PAYLOAD,2023-10-04 18:46:06,15.69904239,0.0003083,69.9978,57.6209,273.0906,86.9937,-1.1379e-05,-1.579e-05,0.0,0 STARLINK-6354,1 56784U 23078T   23277.78201491 -.00001579  00000-0 -11379-4 0  9992,2 56784  69.9978  57.6209 0003083 273.0906  86.9937 15.69904239 20169,6737.308,91.725,361.25,357.096,0.0
56784.0,STARLINK-6354,PAYLOAD,2023-10-05 02:24:49,15.69928564,0.000358,69.9972,56.7248,270.2373,89.8413,1.538e-05,1.637e-05,0.0,0 STARLINK-6354,1 56784U 23078T   23278.10057707  .00001637  00000-0  15380-4 0  9997,2 56784  69.9972  56.7248 0003580 270.2373  89.8413 15.69928564 20219,6737.238,91.724,361.515,356.691,0.0
56784.0,STARLINK-6354,PAYLOAD,2023-10-05 11:35:20,15.69931586,0.0003158,69.9982,55.6508,268.2673,91.8161,7.0453e-06,6.35e-06,0.0,0 STARLINK-6354,1 56784U 23078T   23278.48287728  .00000635  00000-0  70453-5 0  9996,2 56784  69.9982  55.6508 0003158 268.2673  91.8161 15.69931586 20017,6737.23,91.724,361.222,356.967,0.0
56784.0,STARLINK-6354,PAYLOAD,2023-10-05 17:42:21,15.69918648,0.000334,69.9981,54.9338,270.825,89.2563,1.1035e-05,1.114e-05,0.0,0 STARLINK-6354,1 56784U 23078T   23278.73775151  .00001114  00000-0  11035-4 0  9999,2 56784  69.9981  54.9338 0003340 270.8250  89.2563 15.69918648 20316,6737.267,91.724,361.382,356.881,0.0
56784.0,STARLINK-6354,PAYLOAD,2023-10-05 20:45:51,15.69921474,0.0002902,69.9987,54.5774,262.6225,97.4641,9.2333e-06,8.98e-06,0.0,0 STARLINK-6354,1 56784U 23078T   23278.86518473  .00000898  00000-0  92333-5 0  9994,2 56784  69.9987  54.5774 0002902 262.6225  97.4641 15.69921474 20078,6737.259,91.724,361.079,357.169,0.0
56784.0,STARLINK-6354,PAYLOAD,2023-10-06 10:31:37,15.69935157,0.0002973,69.9989,52.9626,264.5323,95.5534,6.8083e-06,6.06e-06,0.0,0 STARLINK-6354,1 56784U 23078T   23279.43862796  .00000606  00000-0  68083-5 0  9990,2 56784  69.9989  52.9626 0002973 264.5323  95.5534 15.69935157 20428,6737.22,91.724,361.087,357.082,0.0
56784.0,STARLINK-6354,PAYLOAD,2023-10-06 12:03:23,15.69925783,0.0002878,69.9982,52.7834,263.156,96.9308,1.3493e-06,-5e-07,0.0,0 STARLINK-6354,1 56784U 23078T   23279.50235059 -.00000050  00000-0  13493-5 0  9993,2 56784  69.9982  52.7834 0002878 263.1560  96.9308 15.69925783 20172,6737.246,91.724,361.05,357.172,0.0
56784.0,STARLINK-6354,PAYLOAD,2023-10-06 21:13:53,15.69923063,0.000295,69.999,51.7091,265.6795,94.4064,3.6874e-05,4.223e-05,0.0,0 STARLINK-6354,1 56784U 23078T   23279.88464752  .00004223  00000-0  36874-4 0  9990,2 56784  69.9990  51.7091 0002950 265.6795  94.4064 15.69923063 20231,6737.254,91.724,361.107,357.132,0.0
